{
    "links": {
        "self": "http://www.neowsapp.com/rest/v1/neo/3726713?api_key=iIulBulltgU6a56xZRHN4H3l9WmuAYTsLGpBGhQ2"
    },
    "id": "3726713",
    "neo_reference_id": "3726713",
    "name": "(2015 RU1)",
    "designation": "2015 RU1",
    "nasa_jpl_url": "http://ssd.jpl.nasa.gov/sbdb.cgi?sstr=3726713",
    "absolute_magnitude_h": 24.4,
    "estimated_diameter": {
        "kilometers": {
            "estimated_diameter_min": 0.0350392641,
            "estimated_diameter_max": 0.0783501764
        },
        "meters": {
            "estimated_diameter_min": 35.0392641108,
            "estimated_diameter_max": 78.3501764334
        },
        "miles": {
            "estimated_diameter_min": 0.0217723826,
            "estimated_diameter_max": 0.0486845275
        },
        "feet": {
            "estimated_diameter_min": 114.9582192654,
            "estimated_diameter_max": 257.0543928497
        }
    },
    "is_potentially_hazardous_asteroid": false,
    "close_approach_data": [
        {
            "close_approach_date": "2015-09-01",
            "close_approach_date_full": "2015-Sep-01 02:39",
            "epoch_date_close_approach": 1441075140000,
            "relative_velocity": {
                "kilometers_per_second": "14.5317109839",
                "kilometers_per_hour": "52314.1595421685",
                "miles_per_hour": "32505.9842999658"
            },
            "miss_distance": {
                "astronomical": "0.0265771653",
                "lunar": "10.3385173017",
                "kilometers": "3975887.319517911",
                "miles": "2470501.8216567318"
            },
            "orbiting_body": "Earth"
        },
        {
            "close_approach_date": "2137-05-29",
            "close_approach_date_full": "2137-May-29 21:14",
            "epoch_date_close_approach": 5282918040000,
            "relative_velocity": {
                "kilometers_per_second": "15.3529180269",
                "kilometers_per_hour": "55270.5048968094",
                "miles_per_hour": "34342.9423343536"
            },
            "miss_distance": {
                "astronomical": "0.3144405143",
                "lunar": "122.3173600627",
                "kilometers": "47039631.180984541",
                "miles": "29229071.4458110258"
            },
            "orbiting_body": "Earth"
        }
    ],
    "orbital_data": {
        "orbit_id": "11",
        "orbit_determination_date": "2017-04-06 08:32:13",
        "first_observation_date": "2015-09-06",
        "last_observation_date": "2015-09-22",
        "data_arc_in_days": 16,
        "observations_used": 47,
        "orbit_uncertainty": "8",
        "minimum_orbit_intersection": ".0255946",
        "jupiter_tisserand_invariant": "3.250",
        "epoch_osculation": "2457273.5",
        "eccentricity": ".6055919765097658",
        "semi_major_axis": "2.344302265838419",
        "inclination": "15.25753019657175",
        "ascending_node_longitude": "342.8057197546481",
        "orbital_period": "1311.048741110126",
        "perihelion_distance": ".9246116231330083",
        "perihelion_argument": "313.4359534900285",
        "aphelion_distance": "3.76399290854383",
        "perihelion_time": "2457234.418391149109",
        "mean_anomaly": "10.73139292625197",
        "mean_motion": ".2745893334943224",
        "equinox": "J2000",
        "orbit_class": {
            "orbit_class_type": "APO",
            "orbit_class_description": "Near-Earth asteroid orbits which cross the Earth’s orbit similar to that of 1862 Apollo",
            "orbit_class_range": "a (semi-major axis) > 1.0 AU; q (perihelion) < 1.017 AU"
        }
    },
    "is_sentry_object": false
}